start=new Date('2022-02-13T00:00:00.000Z').valueOf();
sats=[{"INCLINATION":"53.0565","SITE":"AFETR","REV_AT_EPOCH":"4870","ELEMENT_SET_NO":"999","PERIOD":"95.591","MEAN_MOTION":"15.06413610","TIME_SYSTEM":"UTC","SEMIMAJOR_AXIS":"6925.307","TLE_LINE2":"2 48150  53.0565 343.2809 0001383  83.9315 276.1831 15.06413610 48701","MEAN_ANOMALY":"276.1831","CENTER_NAME":"EARTH","REF_FRAME":"TEME","LAUNCH_DATE":"2021-04-07","ECCENTRICITY":"0.00013830","EPOCH":"2022-02-12T12:35:18.974688","EPHEMERIS_TYPE":"0","PERIAPSIS":"546.214","TLE_LINE1":"1 48150U 21027BL  22043.52452517  .00000669  00000-0  63774-4 0  9994","FILE":"3298493","CLASSIFICATION_TYPE":"U","APOAPSIS":"548.130","ARG_OF_PERICENTER":"83.9315","OBJECT_NAME":"STARLINK-2493","RA_OF_ASC_NODE":"343.2809","MEAN_ELEMENT_THEORY":"SGP4","OBJECT_TYPE":"PAYLOAD","COUNTRY_CODE":"US","MEAN_MOTION_DOT":"0.00000669","GP_ID":"195820296","RCS_SIZE":"LARGE","DECAY_DATE":null,"NORAD_CAT_ID":"48150","MEAN_MOTION_DDOT":"0.0000000000000","OBJECT_ID":"2021-027BL","BSTAR":"0.00006377400000"},{"RCS_SIZE":"LARGE","GP_ID":"195820545","MEAN_MOTION_DOT":"-0.00008289","DECAY_DATE":null,"NORAD_CAT_ID":"48151","RA_OF_ASC_NODE":"343.2640","MEAN_ELEMENT_THEORY":"SGP4","COUNTRY_CODE":"US","OBJECT_TYPE":"PAYLOAD","OBJECT_ID":"2021-027BM","BSTAR":"-0.00053837000000","MEAN_MOTION_DDOT":"0.0000000000000","TIME_SYSTEM":"UTC","LAUNCH_DATE":"2021-04-07","REF_FRAME":"TEME","CENTER_NAME":"EARTH","TLE_LINE2":"2 48151  53.0566 343.2640 0001609  63.4863 296.6291 15.06390573 48707","SEMIMAJOR_AXIS":"6925.377","MEAN_ANOMALY":"296.6291","REV_AT_EPOCH":"4870","SITE":"AFETR","INCLINATION":"53.0566","PERIOD":"95.593","ELEMENT_SET_NO":"999","MEAN_MOTION":"15.06390573","CLASSIFICATION_TYPE":"U","FILE":"3298493","APOAPSIS":"548.357","ARG_OF_PERICENTER":"63.4863","OBJECT_NAME":"STARLINK-2503","ECCENTRICITY":"0.00016090","EPOCH":"2022-02-12T12:40:38.143200","TLE_LINE1":"1 48151U 21027BM  22043.52821925 -.00008289  00000-0 -53837-3 0  9994","EPHEMERIS_TYPE":"0","PERIAPSIS":"546.128"},{"GP_ID":"195820559","RCS_SIZE":"LARGE","MEAN_MOTION_DOT":"0.00001749","DECAY_DATE":null,"NORAD_CAT_ID":"48276","RA_OF_ASC_NODE":"238.0688","MEAN_ELEMENT_THEORY":"SGP4","COUNTRY_CODE":"US","OBJECT_TYPE":"PAYLOAD","OBJECT_ID":"2021-036A","BSTAR":"0.00013625000000","MEAN_MOTION_DDOT":"0.0000000000000","TIME_SYSTEM":"UTC","REF_FRAME":"TEME","LAUNCH_DATE":"2021-04-29","SEMIMAJOR_AXIS":"6925.319","TLE_LINE2":"2 48276  53.0555 238.0688 0001422  71.2960 288.8183 15.06409504 44810","MEAN_ANOMALY":"288.8183","CENTER_NAME":"EARTH","REV_AT_EPOCH":"4481","INCLINATION":"53.0555","SITE":"AFETR","PERIOD":"95.592","ELEMENT_SET_NO":"999","MEAN_MOTION":"15.06409504","FILE":"3298493","CLASSIFICATION_TYPE":"U","APOAPSIS":"548.169","ARG_OF_PERICENTER":"71.2960","OBJECT_NAME":"STARLINK-2567","ECCENTRICITY":"0.00014220","EPOCH":"2022-02-12T13:39:41.696640","TLE_LINE1":"1 48276U 21036A   22043.56923260  .00001749  00000-0  13625-3 0  9994","EPHEMERIS_TYPE":"0","PERIAPSIS":"546.200"},{"TIME_SYSTEM":"UTC","TLE_LINE2":"2 48277  53.0544 201.4982 0001589  74.1180   3.6312 15.06355089 45939","MEAN_ANOMALY":"3.6312","SEMIMAJOR_AXIS":"6925.486","CENTER_NAME":"EARTH","LAUNCH_DATE":"2021-04-29","REF_FRAME":"TEME","INCLINATION":"53.0544","SITE":"AFETR","REV_AT_EPOCH":"4593","ELEMENT_SET_NO":"999","PERIOD":"95.595","MEAN_MOTION":"15.06355089","FILE":"3298746","CLASSIFICATION_TYPE":"U","APOAPSIS":"548.452","OBJECT_NAME":"STARLINK-2569","ARG_OF_PERICENTER":"74.1180","ECCENTRICITY":"0.00015890","EPOCH":"2022-02-12T22:00:00.999936","EPHEMERIS_TYPE":"0","PERIAPSIS":"546.251","TLE_LINE1":"1 48277U 21036B   22043.91667824  .00060521  00000-0  40521-2 0  9992","MEAN_MOTION_DOT":"0.00060521","RCS_SIZE":"LARGE","GP_ID":"195827936","DECAY_DATE":null,"NORAD_CAT_ID":"48277","RA_OF_ASC_NODE":"201.4982","MEAN_ELEMENT_THEORY":"SGP4","OBJECT_TYPE":"PAYLOAD","COUNTRY_CODE":"US","OBJECT_ID":"2021-036B","BSTAR":"0.00405210000000","MEAN_MOTION_DDOT":"0.0000000000000"},{"MEAN_ELEMENT_THEORY":"SGP4","OBJECT_TYPE":"PAYLOAD","COUNTRY_CODE":"US","RA_OF_ASC_NODE":"218.1292","DECAY_DATE":null,"NORAD_CAT_ID":"48278","MEAN_MOTION_DOT":"-0.00016895","RCS_SIZE":"LARGE","GP_ID":"195793885","MEAN_MOTION_DDOT":"0.0000000000000","BSTAR":"-0.00111780000000","OBJECT_ID":"2021-036C","ELEMENT_SET_NO":"999","PERIOD":"95.592","MEAN_MOTION":"15.06407397","INCLINATION":"53.0529","SITE":"AFETR","REV_AT_EPOCH":"4567","TLE_LINE2":"2 48278  53.0529 218.1292 0001537  57.7931 168.8907 15.06407397 45671","SEMIMAJOR_AXIS":"6925.326","MEAN_ANOMALY":"168.8907","CENTER_NAME":"EARTH","LAUNCH_DATE":"2021-04-29","REF_FRAME":"TEME","TIME_SYSTEM":"UTC","EPOCH":"2022-02-12T14:00:01.000224","EPHEMERIS_TYPE":"0","PERIAPSIS":"546.126","TLE_LINE1":"1 48278U 21036C   22043.58334491 -.00016895  00000-0 -11178-2 0  9990","ECCENTRICITY":"0.00015370","APOAPSIS":"548.255","ARG_OF_PERICENTER":"57.7931","OBJECT_NAME":"STARLINK-2543","FILE":"3298279","CLASSIFICATION_TYPE":"U"},{"TIME_SYSTEM":"UTC","TLE_LINE2":"2 48279  53.0537 216.5159 0001731  63.5041 211.8509 15.06391966 45725","SEMIMAJOR_AXIS":"6925.373","CENTER_NAME":"EARTH","MEAN_ANOMALY":"211.8509","REF_FRAME":"TEME","LAUNCH_DATE":"2021-04-29","SITE":"AFETR","INCLINATION":"53.0537","REV_AT_EPOCH":"4572","ELEMENT_SET_NO":"999","PERIOD":"95.593","MEAN_MOTION":"15.06391966","CLASSIFICATION_TYPE":"U","FILE":"3298633","APOAPSIS":"548.437","ARG_OF_PERICENTER":"63.5041","OBJECT_NAME":"STARLINK-2580","ECCENTRICITY":"0.00017310","EPOCH":"2022-02-12T22:00:00.999936","EPHEMERIS_TYPE":"0","PERIAPSIS":"546.039","TLE_LINE1":"1 48279U 21036D   22043.91667824  .00005089  00000-0  36039-3 0  9992","MEAN_MOTION_DOT":"0.00005089","GP_ID":"195826069","RCS_SIZE":"LARGE","DECAY_DATE":null,"NORAD_CAT_ID":"48279","RA_OF_ASC_NODE":"216.5159","MEAN_ELEMENT_THEORY":"SGP4","OBJECT_TYPE":"PAYLOAD","COUNTRY_CODE":"US","OBJECT_ID":"2021-036D","BSTAR":"0.00036039000000","MEAN_MOTION_DDOT":"0.0000000000000"},{"OBJECT_ID":"2021-036E","BSTAR":"0.00026059000000","MEAN_MOTION_DDOT":"0.0000000000000","NORAD_CAT_ID":"48280","DECAY_DATE":null,"GP_ID":"195819059","RCS_SIZE":"LARGE","MEAN_MOTION_DOT":"0.00003604","COUNTRY_CODE":"US","OBJECT_TYPE":"PAYLOAD","MEAN_ELEMENT_THEORY":"SGP4","RA_OF_ASC_NODE":"288.8447","ARG_OF_PERICENTER":"69.5949","OBJECT_NAME":"STARLINK-2565","APOAPSIS":"548.323","FILE":"3298493","CLASSIFICATION_TYPE":"U","TLE_LINE1":"1 48280U 21036E   22043.39506712  .00003604  00000-0  26059-3 0  9996","PERIAPSIS":"546.001","EPHEMERIS_TYPE":"0","EPOCH":"2022-02-12T09:28:53.799168","ECCENTRICITY":"0.00016770","LAUNCH_DATE":"2021-04-29","REF_FRAME":"TEME","SEMIMAJOR_AXIS":"6925.297","TLE_LINE2":"2 48280  53.0539 288.8447 0001677  69.5949 290.5220 15.06416811 44082","CENTER_NAME":"EARTH","MEAN_ANOMALY":"290.5220","TIME_SYSTEM":"UTC","MEAN_MOTION":"15.06416811","PERIOD":"95.591","ELEMENT_SET_NO":"999","REV_AT_EPOCH":"4408","SITE":"AFETR","INCLINATION":"53.0539"},{"MEAN_MOTION_DDOT":"0.0000000000000","OBJECT_ID":"2021-036F","BSTAR":"-0.00008461900000","MEAN_ELEMENT_THEORY":"SGP4","COUNTRY_CODE":"US","OBJECT_TYPE":"PAYLOAD","RA_OF_ASC_NODE":"267.0098","DECAY_DATE":null,"NORAD_CAT_ID":"48281","GP_ID":"195826092","RCS_SIZE":"LARGE","MEAN_MOTION_DOT":"-0.00001542","EPOCH":"2022-02-12T19:20:43.697184","TLE_LINE1":"1 48281U 21036F   22043.80606131 -.00001542  00000-0 -84619-4 0  9997","PERIAPSIS":"545.948","EPHEMERIS_TYPE":"0","ECCENTRICITY":"0.00018100","APOAPSIS":"548.455","OBJECT_NAME":"STARLINK-2520","ARG_OF_PERICENTER":"64.9459","FILE":"3298634","CLASSIFICATION_TYPE":"U","PERIOD":"95.592","ELEMENT_SET_NO":"999","MEAN_MOTION":"15.06403947","REV_AT_EPOCH":"4500","INCLINATION":"53.0551","SITE":"AFETR","REF_FRAME":"TEME","LAUNCH_DATE":"2021-04-29","CENTER_NAME":"EARTH","TLE_LINE2":"2 48281  53.0551 267.0098 0001810  64.9459 295.1718 15.06403947 45004","SEMIMAJOR_AXIS":"6925.336","MEAN_ANOMALY":"295.1718","TIME_SYSTEM":"UTC"},{"REF_FRAME":"TEME","LAUNCH_DATE":"2021-04-29","CENTER_NAME":"EARTH","TLE_LINE2":"2 48282  53.0528 271.9126 0001682  70.2320 289.8850 15.06403479 44948","SEMIMAJOR_AXIS":"6925.338","MEAN_ANOMALY":"289.8850","TIME_SYSTEM":"UTC","PERIOD":"95.592","ELEMENT_SET_NO":"999","MEAN_MOTION":"15.06403479","REV_AT_EPOCH":"4494","INCLINATION":"53.0528","SITE":"AFETR","APOAPSIS":"548.368","ARG_OF_PERICENTER":"70.2320","OBJECT_NAME":"STARLINK-2558","CLASSIFICATION_TYPE":"U","FILE":"3298634","EPOCH":"2022-02-12T19:54:32.843520","TLE_LINE1":"1 48282U 21036G   22043.82954680 -.00001142  00000-0 -57788-4 0  9998","EPHEMERIS_TYPE":"0","PERIAPSIS":"546.038","ECCENTRICITY":"0.00016820","DECAY_DATE":null,"NORAD_CAT_ID":"48282","RCS_SIZE":"LARGE","GP_ID":"195826087","MEAN_MOTION_DOT":"-0.00001142","MEAN_ELEMENT_THEORY":"SGP4","COUNTRY_CODE":"US","OBJECT_TYPE":"PAYLOAD","RA_OF_ASC_NODE":"271.9126","BSTAR":"-0.00005778800000","OBJECT_ID":"2021-036G","MEAN_MOTION_DDOT":"0.0000000000000"},{"BSTAR":"0.00005054400000","OBJECT_ID":"2021-036H","MEAN_MOTION_DDOT":"0.0000000000000","DECAY_DATE":null,"NORAD_CAT_ID":"48283","MEAN_MOTION_DOT":"0.00000471","RCS_SIZE":"LARGE","GP_ID":"195826090","MEAN_ELEMENT_THEORY":"SGP4","OBJECT_TYPE":"PAYLOAD","COUNTRY_CODE":"US","RA_OF_ASC_NODE":"271.9285","APOAPSIS":"548.359","ARG_OF_PERICENTER":"66.6670","OBJECT_NAME":"STARLINK-2516","FILE":"3298634","CLASSIFICATION_TYPE":"U","EPOCH":"2022-02-12T19:49:14.695392","EPHEMERIS_TYPE":"0","PERIAPSIS":"546.039","TLE_LINE1":"1 48283U 21036H   22043.82586453  .00000471  00000-0  50544-4 0  9993","ECCENTRICITY":"0.00016750","TLE_LINE2":"2 48283  53.0540 271.9285 0001675  66.6670 293.4495 15.06404897 44949","SEMIMAJOR_AXIS":"6925.334","CENTER_NAME":"EARTH","MEAN_ANOMALY":"293.4495","LAUNCH_DATE":"2021-04-29","REF_FRAME":"TEME","TIME_SYSTEM":"UTC","ELEMENT_SET_NO":"999","PERIOD":"95.592","MEAN_MOTION":"15.06404897","SITE":"AFETR","INCLINATION":"53.0540","REV_AT_EPOCH":"4494"}];
